[
    {
        "CCSDS_OMM_VERS": "3.0",
        "COMMENT": "GENERATED VIA SPACE-TRACK.ORG API",
        "CREATION_DATE": "2025-04-14T03:05:54",
        "ORIGINATOR": "18 SPCS",
        "OBJECT_NAME": "QZS-4",
        "OBJECT_ID": "2017-062A",
        "CENTER_NAME": "EARTH",
        "REF_FRAME": "TEME",
        "TIME_SYSTEM": "UTC",
        "MEAN_ELEMENT_THEORY": "SGP4",
        "EPOCH": "2025-04-12T23:56:21.675840",
        "MEAN_MOTION": "1.00271088",
        "ECCENTRICITY": "0.07469850",
        "INCLINATION": "40.3617",
        "RA_OF_ASC_NODE": "348.9729",
        "ARG_OF_PERICENTER": "270.4521",
        "MEAN_ANOMALY": "80.9993",
        "EPHEMERIS_TYPE": "0",
        "CLASSIFICATION_TYPE": "U",
        "NORAD_CAT_ID": "42965",
        "ELEMENT_SET_NO": "999",
        "REV_AT_EPOCH": "2749",
        "BSTAR": "0.00000000000000",
        "MEAN_MOTION_DOT": "-0.00000330",
        "MEAN_MOTION_DDOT": "0.0000000000000",
        "SEMIMAJOR_AXIS": "42164.927",
        "PERIOD": "1436.107",
        "APOAPSIS": "38936.449",
        "PERIAPSIS": "32637.136",
        "OBJECT_TYPE": "PAYLOAD",
        "RCS_SIZE": "LARGE",
        "COUNTRY_CODE": "JPN",
        "LAUNCH_DATE": "2017-10-09",
        "SITE": "TNSTA",
        "DECAY_DATE": null,
        "FILE": "4701263",
        "GP_ID": "285538810",
        "TLE_LINE0": "0 QZS-4",
        "TLE_LINE1": "1 42965U 17062A   25102.99747310 -.00000330  00000-0  00000-0 0  9999",
        "TLE_LINE2": "2 42965  40.3617 348.9729 0746985 270.4521  80.9993  1.00271088 27498"
    }
]